{
    "links": {
        "self": "http://www.neowsapp.com/rest/v1/neo/54051294?api_key=iIulBulltgU6a56xZRHN4H3l9WmuAYTsLGpBGhQ2"
    },
    "id": "54051294",
    "neo_reference_id": "54051294",
    "name": "(2020 QZ2)",
    "designation": "2020 QZ2",
    "nasa_jpl_url": "http://ssd.jpl.nasa.gov/sbdb.cgi?sstr=54051294",
    "absolute_magnitude_h": 20.743,
    "estimated_diameter": {
        "kilometers": {
            "estimated_diameter_min": 0.1887795631,
            "estimated_diameter_max": 0.4221239358
        },
        "meters": {
            "estimated_diameter_min": 188.7795630812,
            "estimated_diameter_max": 422.1239358122
        },
        "miles": {
            "estimated_diameter_min": 0.1173021459,
            "estimated_diameter_max": 0.2622955721
        },
        "feet": {
            "estimated_diameter_min": 619.3555417392,
            "estimated_diameter_max": 1384.9210935701
        }
    },
    "is_potentially_hazardous_asteroid": false,
    "close_approach_data": [
        {
            "close_approach_date": "1992-06-06",
            "close_approach_date_full": "1992-Jun-06 15:38",
            "epoch_date_close_approach": 707845080000,
            "relative_velocity": {
                "kilometers_per_second": "6.2308366581",
                "kilometers_per_hour": "22431.0119691064",
                "miles_per_hour": "13937.7585204706"
            },
            "miss_distance": {
                "astronomical": "1.255988967",
                "lunar": "488.579708163",
                "kilometers": "187893274.20670029",
                "miles": "116751466.754592402"
            },
            "orbiting_body": "Juptr"
        },
        {
            "close_approach_date": "2020-09-27",
            "close_approach_date_full": "2020-Sep-27 15:13",
            "epoch_date_close_approach": 1601219580000,
            "relative_velocity": {
                "kilometers_per_second": "19.5890764951",
                "kilometers_per_hour": "70520.6753822362",
                "miles_per_hour": "43818.8052118122"
            },
            "miss_distance": {
                "astronomical": "0.4453337565",
                "lunar": "173.2348312785",
                "kilometers": "66620981.411498655",
                "miles": "41396358.274465239"
            },
            "orbiting_body": "Earth"
        },
        {
            "close_approach_date": "2033-09-10",
            "close_approach_date_full": "2033-Sep-10 05:50",
            "epoch_date_close_approach": 2009944200000,
            "relative_velocity": {
                "kilometers_per_second": "17.0671462965",
                "kilometers_per_hour": "61441.7266675303",
                "miles_per_hour": "38177.4995507218"
            },
            "miss_distance": {
                "astronomical": "0.1651016366",
                "lunar": "64.2245366374",
                "kilometers": "24698853.168874042",
                "miles": "15347155.7020720996"
            },
            "orbiting_body": "Earth"
        },
        {
            "close_approach_date": "2039-12-05",
            "close_approach_date_full": "2039-Dec-05 20:03",
            "epoch_date_close_approach": 2206728180000,
            "relative_velocity": {
                "kilometers_per_second": "6.3127784301",
                "kilometers_per_hour": "22726.00234838",
                "miles_per_hour": "14121.0540703031"
            },
            "miss_distance": {
                "astronomical": "1.2792362406",
                "lunar": "497.6228975934",
                "kilometers": "191371016.820567522",
                "miles": "118912435.8093829236"
            },
            "orbiting_body": "Juptr"
        },
        {
            "close_approach_date": "2046-09-02",
            "close_approach_date_full": "2046-Sep-02 12:28",
            "epoch_date_close_approach": 2419504080000,
            "relative_velocity": {
                "kilometers_per_second": "16.9780348538",
                "kilometers_per_hour": "61120.9254737902",
                "miles_per_hour": "37978.1661645337"
            },
            "miss_distance": {
                "astronomical": "0.0730760758",
                "lunar": "28.4265934862",
                "kilometers": "10932025.287638546",
                "miles": "6792845.5253060948"
            },
            "orbiting_body": "Earth"
        }
    ],
    "orbital_data": {
        "orbit_id": "4",
        "orbit_determination_date": "2020-11-13 05:20:41",
        "first_observation_date": "2020-08-11",
        "last_observation_date": "2020-11-12",
        "data_arc_in_days": 93,
        "observations_used": 26,
        "orbit_uncertainty": "6",
        "minimum_orbit_intersection": ".0762329",
        "jupiter_tisserand_invariant": "2.975",
        "epoch_osculation": "2459000.5",
        "eccentricity": ".5971320798896206",
        "semi_major_axis": "2.654651592864841",
        "inclination": "27.62467632008523",
        "ascending_node_longitude": "156.8060145293635",
        "orbital_period": "1579.827694524306",
        "perihelion_distance": "1.069473965835164",
        "perihelion_argument": "196.8643366516467",
        "aphelion_distance": "4.239829219894518",
        "perihelion_time": "2459131.561320292499",
        "mean_anomaly": "330.1346700853308",
        "mean_motion": ".2278729517451571",
        "equinox": "J2000",
        "orbit_class": {
            "orbit_class_type": "AMO",
            "orbit_class_description": "Near-Earth asteroid orbits similar to that of 1221 Amor",
            "orbit_class_range": "1.017 AU < q (perihelion) < 1.3 AU"
        }
    },
    "is_sentry_object": false
}